1 27526U 02043B   11322.22666478  .00923269 -11173-5  54386-3 0  9990
2 27526 017.7981 042.2340 4029454 273.9058 042.4524 07.61547446125984
1 27526U 02043B   11322.61994307  .00926287 -11205-5  50975-3 0  9997
2 27526 017.7971 041.4316 4026507 275.4013 041.1767 07.62281263126014
1 27526U 02043B   11323.01293473  .00927753 -11234-5  49487-3 0  9995
2 27526 017.8001 040.6141 4023096 276.9242 040.1329 07.63011080126041
1 27526U 02043B   11323.27472477  .00926895 -11256-5  50297-3 0  9997
2 27526 017.7941 040.0741 4020334 277.9311 039.4442 07.63492560126068
1 27526U 02043B   11323.66711222  .00922994 -11285-5  52289-3 0  9995
2 27526 017.7885 039.2567 4015989 279.4380 038.4602 07.64209629126097
1 27526U 02043B   11324.58126691  .00924699 -11346-5  51111-3 0  9992
2 27526 017.7838 037.3513 4007431 282.9938 036.2297 07.65903384126160
1 27526U 02043B   11325.23300266  .00922775 -11378-5  52476-3 0  9990
2 27526 017.7933 035.9954 4000793 285.5244 034.5813 07.67096021126216
1 27526U 02043B   11325.62359641  .00920335 -11402-5  51601-3 0  9991
2 27526 017.7817 035.1763 3997263 287.0384 033.7022 07.67805760126249
1 27526U 02043B   11326.27376833  .00917399 -11429-5  55035-3 0  9995
2 27526 017.7865 033.8250 3990151 289.5722 032.2090 07.68990590126291
1 27526U 02043B   11326.66340632  .00918631 -11443-5  54072-3 0  9992
2 27526 017.7910 033.0232 3986625 291.0619 031.4076 07.69711749126325
1 27526U 02043B   11327.31197709  .00924791 -11463-5  50402-3 0  9999
2 27526 017.8021 031.6783 3981290 293.5558 030.0549 07.70927923126376
1 27526U 02043B   11327.57109469  .00926760 -11470-5  52497-3 0  9995
2 27526 017.8046 031.1406 3978215 294.5636 029.4475 07.71416006126399
1 27526U 02043B   11328.21824676  .00938686 -11487-5  54131-3 0  9996
2 27526 017.8116 029.7752 3971468 297.0932 028.1793 07.72659645126448
1 27526U 02043B   11328.60599756  .00940302 -11495-5  55801-3 0  9999
2 27526 017.8143 028.9746 3967252 298.6069 027.2529 07.73392733126479
1 27526U 02043B   11329.12249290  .00941589 -11505-5  55324-3 0  9992
2 27526 017.8106 027.8781 3962277 300.6578 026.2004 07.74369521126518
1 27526U 02043B   11329.38049024  .00943282 -11516-5  54476-3 0  9994
2 27526 017.7943 027.3137 3959946 301.6893 025.6591 07.74859607126531
1 27526U 02043B   11329.50942653  .00943132 -11517-5  54213-3 0  9992
2 27526 017.7956 027.0447 3958743 302.1887 025.3832 07.75101863126540